<?xml version="1.0" encoding="UTF-8"?>
<ndm xmlns:xsi="http://www.w3.org/2001/XMLSchema-instance" xsi:noNamespaceSchemaLocation="https://sanaregistry.org/r/ndmxml_unqualified/ndmxml-2.0.0-master-2.0.xsd">
<omm id="CCSDS_OMM_VERS" version="2.0">
<header><CREATION_DATE/><ORIGINATOR/></header><body><segment><metadata><OBJECT_NAME>KUIPER-00136</OBJECT_NAME><OBJECT_ID>2025-228R</OBJECT_ID><CENTER_NAME>EARTH</CENTER_NAME><REF_FRAME>TEME</REF_FRAME><TIME_SYSTEM>UTC</TIME_SYSTEM><MEAN_ELEMENT_THEORY>SGP4</MEAN_ELEMENT_THEORY></metadata><data><meanElements><EPOCH>2025-11-22T22:11:27.025440</EPOCH><MEAN_MOTION>15.35123051</MEAN_MOTION><ECCENTRICITY>.00040587</ECCENTRICITY><INCLINATION>51.8786</INCLINATION><RA_OF_ASC_NODE>115.9989</RA_OF_ASC_NODE><ARG_OF_PERICENTER>249.8388</ARG_OF_PERICENTER><MEAN_ANOMALY>110.2162</MEAN_ANOMALY></meanElements><tleParameters><EPHEMERIS_TYPE>0</EPHEMERIS_TYPE><CLASSIFICATION_TYPE>U</CLASSIFICATION_TYPE><NORAD_CAT_ID>65962</NORAD_CAT_ID><ELEMENT_SET_NO>999</ELEMENT_SET_NO><REV_AT_EPOCH>737</REV_AT_EPOCH><BSTAR>.88903374E-3</BSTAR><MEAN_MOTION_DOT>.30516E-3</MEAN_MOTION_DOT><MEAN_MOTION_DDOT>0</MEAN_MOTION_DDOT></tleParameters></data></segment></body></omm>
<omm id="CCSDS_OMM_VERS" version="2.0">
<header><CREATION_DATE/><ORIGINATOR/></header><body><segment><metadata><OBJECT_NAME>KUIPER-00137</OBJECT_NAME><OBJECT_ID>2025-228S</OBJECT_ID><CENTER_NAME>EARTH</CENTER_NAME><REF_FRAME>TEME</REF_FRAME><TIME_SYSTEM>UTC</TIME_SYSTEM><MEAN_ELEMENT_THEORY>SGP4</MEAN_ELEMENT_THEORY></metadata><data><meanElements><EPOCH>2025-11-24T16:38:05.325216</EPOCH><MEAN_MOTION>15.34957239</MEAN_MOTION><ECCENTRICITY>.0005552</ECCENTRICITY><INCLINATION>51.8786</INCLINATION><RA_OF_ASC_NODE>107.6020</RA_OF_ASC_NODE><ARG_OF_PERICENTER>311.4657</ARG_OF_PERICENTER><MEAN_ANOMALY>48.5851</MEAN_ANOMALY></meanElements><tleParameters><EPHEMERIS_TYPE>0</EPHEMERIS_TYPE><CLASSIFICATION_TYPE>U</CLASSIFICATION_TYPE><NORAD_CAT_ID>65963</NORAD_CAT_ID><ELEMENT_SET_NO>999</ELEMENT_SET_NO><REV_AT_EPOCH>764</REV_AT_EPOCH><BSTAR>.55279E-3</BSTAR><MEAN_MOTION_DOT>.18702E-3</MEAN_MOTION_DOT><MEAN_MOTION_DDOT>0</MEAN_MOTION_DDOT></tleParameters></data></segment></body></omm>
<omm id="CCSDS_OMM_VERS" version="2.0">
<header><CREATION_DATE/><ORIGINATOR/></header><body><segment><metadata><OBJECT_NAME>KUIPER-00138</OBJECT_NAME><OBJECT_ID>2025-228T</OBJECT_ID><CENTER_NAME>EARTH</CENTER_NAME><REF_FRAME>TEME</REF_FRAME><TIME_SYSTEM>UTC</TIME_SYSTEM><MEAN_ELEMENT_THEORY>SGP4</MEAN_ELEMENT_THEORY></metadata><data><meanElements><EPOCH>2025-11-24T16:43:48.747936</EPOCH><MEAN_MOTION>15.34992395</MEAN_MOTION><ECCENTRICITY>.0006803</ECCENTRICITY><INCLINATION>51.8788</INCLINATION><RA_OF_ASC_NODE>107.6199</RA_OF_ASC_NODE><ARG_OF_PERICENTER>312.6360</ARG_OF_PERICENTER><MEAN_ANOMALY>47.4052</MEAN_ANOMALY></meanElements><tleParameters><EPHEMERIS_TYPE>0</EPHEMERIS_TYPE><CLASSIFICATION_TYPE>U</CLASSIFICATION_TYPE><NORAD_CAT_ID>65964</NORAD_CAT_ID><ELEMENT_SET_NO>999</ELEMENT_SET_NO><REV_AT_EPOCH>764</REV_AT_EPOCH><BSTAR>.7694E-3</BSTAR><MEAN_MOTION_DOT>.26243E-3</MEAN_MOTION_DOT><MEAN_MOTION_DDOT>0</MEAN_MOTION_DDOT></tleParameters></data></segment></body></omm>
<omm id="CCSDS_OMM_VERS" version="2.0">
<header><CREATION_DATE/><ORIGINATOR/></header><body><segment><metadata><OBJECT_NAME>KUIPER-00140</OBJECT_NAME><OBJECT_ID>2025-228U</OBJECT_ID><CENTER_NAME>EARTH</CENTER_NAME><REF_FRAME>TEME</REF_FRAME><TIME_SYSTEM>UTC</TIME_SYSTEM><MEAN_ELEMENT_THEORY>SGP4</MEAN_ELEMENT_THEORY></metadata><data><meanElements><EPOCH>2025-11-24T16:47:37.219776</EPOCH><MEAN_MOTION>15.34669982</MEAN_MOTION><ECCENTRICITY>.0006291</ECCENTRICITY><INCLINATION>51.8799</INCLINATION><RA_OF_ASC_NODE>107.6422</RA_OF_ASC_NODE><ARG_OF_PERICENTER>314.3737</ARG_OF_PERICENTER><MEAN_ANOMALY>45.6732</MEAN_ANOMALY></meanElements><tleParameters><EPHEMERIS_TYPE>0</EPHEMERIS_TYPE><CLASSIFICATION_TYPE>U</CLASSIFICATION_TYPE><NORAD_CAT_ID>65965</NORAD_CAT_ID><ELEMENT_SET_NO>999</ELEMENT_SET_NO><REV_AT_EPOCH>764</REV_AT_EPOCH><BSTAR>.10054E-2</BSTAR><MEAN_MOTION_DOT>.34088E-3</MEAN_MOTION_DOT><MEAN_MOTION_DDOT>0</MEAN_MOTION_DDOT></tleParameters></data></segment></body></omm>
<omm id="CCSDS_OMM_VERS" version="2.0">
<header><CREATION_DATE/><ORIGINATOR/></header><body><segment><metadata><OBJECT_NAME>KUIPER-00141</OBJECT_NAME><OBJECT_ID>2025-228V</OBJECT_ID><CENTER_NAME>EARTH</CENTER_NAME><REF_FRAME>TEME</REF_FRAME><TIME_SYSTEM>UTC</TIME_SYSTEM><MEAN_ELEMENT_THEORY>SGP4</MEAN_ELEMENT_THEORY></metadata><data><meanElements><EPOCH>2025-11-24T16:26:49.424064</EPOCH><MEAN_MOTION>15.35555281</MEAN_MOTION><ECCENTRICITY>.0005615</ECCENTRICITY><INCLINATION>51.8781</INCLINATION><RA_OF_ASC_NODE>107.5411</RA_OF_ASC_NODE><ARG_OF_PERICENTER>297.5108</ARG_OF_PERICENTER><MEAN_ANOMALY>62.5307</MEAN_ANOMALY></meanElements><tleParameters><EPHEMERIS_TYPE>0</EPHEMERIS_TYPE><CLASSIFICATION_TYPE>U</CLASSIFICATION_TYPE><NORAD_CAT_ID>65966</NORAD_CAT_ID><ELEMENT_SET_NO>999</ELEMENT_SET_NO><REV_AT_EPOCH>764</REV_AT_EPOCH><BSTAR>.12521E-2</BSTAR><MEAN_MOTION_DOT>.43826E-3</MEAN_MOTION_DOT><MEAN_MOTION_DDOT>0</MEAN_MOTION_DDOT></tleParameters></data></segment></body></omm>
<omm id="CCSDS_OMM_VERS" version="2.0">
<header><CREATION_DATE/><ORIGINATOR/></header><body><segment><metadata><OBJECT_NAME>KUIPER-00146</OBJECT_NAME><OBJECT_ID>2025-228W</OBJECT_ID><CENTER_NAME>EARTH</CENTER_NAME><REF_FRAME>TEME</REF_FRAME><TIME_SYSTEM>UTC</TIME_SYSTEM><MEAN_ELEMENT_THEORY>SGP4</MEAN_ELEMENT_THEORY></metadata><data><meanElements><EPOCH>2025-11-24T16:33:51.522624</EPOCH><MEAN_MOTION>15.35042286</MEAN_MOTION><ECCENTRICITY>.0006153</ECCENTRICITY><INCLINATION>51.8786</INCLINATION><RA_OF_ASC_NODE>107.5825</RA_OF_ASC_NODE><ARG_OF_PERICENTER>299.6822</ARG_OF_PERICENTER><MEAN_ANOMALY>60.3551</MEAN_ANOMALY></meanElements><tleParameters><EPHEMERIS_TYPE>0</EPHEMERIS_TYPE><CLASSIFICATION_TYPE>U</CLASSIFICATION_TYPE><NORAD_CAT_ID>65967</NORAD_CAT_ID><ELEMENT_SET_NO>999</ELEMENT_SET_NO><REV_AT_EPOCH>764</REV_AT_EPOCH><BSTAR>.10954E-2</BSTAR><MEAN_MOTION_DOT>.37637E-3</MEAN_MOTION_DOT><MEAN_MOTION_DDOT>0</MEAN_MOTION_DDOT></tleParameters></data></segment></body></omm>
<omm id="CCSDS_OMM_VERS" version="2.0">
<header><CREATION_DATE/><ORIGINATOR/></header><body><segment><metadata><OBJECT_NAME>KUIPER-00149</OBJECT_NAME><OBJECT_ID>2025-228X</OBJECT_ID><CENTER_NAME>EARTH</CENTER_NAME><REF_FRAME>TEME</REF_FRAME><TIME_SYSTEM>UTC</TIME_SYSTEM><MEAN_ELEMENT_THEORY>SGP4</MEAN_ELEMENT_THEORY></metadata><data><meanElements><EPOCH>2025-11-24T16:00:05.000256</EPOCH><MEAN_MOTION>15.35630401</MEAN_MOTION><ECCENTRICITY>.0005128</ECCENTRICITY><INCLINATION>51.8775</INCLINATION><RA_OF_ASC_NODE>107.5942</RA_OF_ASC_NODE><ARG_OF_PERICENTER>291.2262</ARG_OF_PERICENTER><MEAN_ANOMALY>345.9347</MEAN_ANOMALY></meanElements><tleParameters><EPHEMERIS_TYPE>0</EPHEMERIS_TYPE><CLASSIFICATION_TYPE>U</CLASSIFICATION_TYPE><NORAD_CAT_ID>65968</NORAD_CAT_ID><ELEMENT_SET_NO>999</ELEMENT_SET_NO><REV_AT_EPOCH>446</REV_AT_EPOCH><BSTAR>.59074E-3</BSTAR><MEAN_MOTION_DOT>.20457E-3</MEAN_MOTION_DOT><MEAN_MOTION_DDOT>0</MEAN_MOTION_DDOT></tleParameters></data></segment></body></omm>
<omm id="CCSDS_OMM_VERS" version="2.0">
<header><CREATION_DATE/><ORIGINATOR/></header><body><segment><metadata><OBJECT_NAME>KUIPER-00154</OBJECT_NAME><OBJECT_ID>2025-228Y</OBJECT_ID><CENTER_NAME>EARTH</CENTER_NAME><REF_FRAME>TEME</REF_FRAME><TIME_SYSTEM>UTC</TIME_SYSTEM><MEAN_ELEMENT_THEORY>SGP4</MEAN_ELEMENT_THEORY></metadata><data><meanElements><EPOCH>2025-11-24T14:49:38.028000</EPOCH><MEAN_MOTION>15.35328496</MEAN_MOTION><ECCENTRICITY>.0005852</ECCENTRICITY><INCLINATION>51.8781</INCLINATION><RA_OF_ASC_NODE>107.8433</RA_OF_ASC_NODE><ARG_OF_PERICENTER>292.7819</ARG_OF_PERICENTER><MEAN_ANOMALY>67.2549</MEAN_ANOMALY></meanElements><tleParameters><EPHEMERIS_TYPE>0</EPHEMERIS_TYPE><CLASSIFICATION_TYPE>U</CLASSIFICATION_TYPE><NORAD_CAT_ID>65969</NORAD_CAT_ID><ELEMENT_SET_NO>999</ELEMENT_SET_NO><REV_AT_EPOCH>763</REV_AT_EPOCH><BSTAR>.13814E-2</BSTAR><MEAN_MOTION_DOT>.48069E-3</MEAN_MOTION_DOT><MEAN_MOTION_DDOT>0</MEAN_MOTION_DDOT></tleParameters></data></segment></body></omm>

</ndm>
