KUIPER-00136            
1 65962U 25228R   25326.92461835  .00030516  00000+0  88903-3 0  9998
2 65962  51.8786 115.9989 0004058 249.8388 110.2162 15.35123051  7372
KUIPER-00137            
1 65963U 25228S   25328.69311719  .00018702  00000+0  55279-3 0  9993
2 65963  51.8786 107.6020 0005552 311.4657  48.5851 15.34957239  7642
KUIPER-00138            
1 65964U 25228T   25328.69709199  .00026243  00000+0  76940-3 0  9994
2 65964  51.8788 107.6199 0006803 312.6360  47.4052 15.34992395  7649
KUIPER-00140            
1 65965U 25228U   25328.69973634  .00034088  00000+0  10054-2 0  9991
2 65965  51.8799 107.6422 0006291 314.3737  45.6732 15.34669982  7647
KUIPER-00141            
1 65966U 25228V   25328.68529426  .00043826  00000+0  12521-2 0  9998
2 65966  51.8781 107.5411 0005615 297.5108  62.5307 15.35555281  7642
KUIPER-00146            
1 65967U 25228W   25328.69017966  .00037637  00000+0  10954-2 0  9992
2 65967  51.8786 107.5825 0006153 299.6822  60.3551 15.35042286  7644
KUIPER-00149            
1 65968U 25228X   25328.66672454  .00020457  00000+0  59074-3 0  9998
2 65968  51.8775 107.5942 0005128 291.2262 345.9347 15.35630401  4464
KUIPER-00154            
1 65969U 25228Y   25328.61780125  .00048069  00000+0  13814-2 0  9999
2 65969  51.8781 107.8433 0005852 292.7819  67.2549 15.35328496  7636
